GLOBAL-31               
1 63027U 25033B   26186.18240692  .00019400  00000+0  51770-3 0  9992
2 63027  58.9969 243.4223 0010827  52.4352 307.7706 15.38171179 77091
GLOBAL-32               
1 64231U 25118B   26186.06251302  .00024136  00000+0  62137-3 0  9992
2 64231  58.9931  60.1772 0015587  54.6703 305.5828 15.39087371 60996
GLOBAL-33               
1 66554U 25267A   26185.71660232  .00023544  00000+0  63771-3 0  9991
2 66554  42.0200 314.2829 0009085   9.2571 350.8434 15.37131097 34743
GLOBAL-34               
1 68098U 26043A   26186.14103814  .00017796  00000+0  55345-3 0  9995
2 68098  42.0210 116.9423 0002092  18.1769 341.9144 15.32962510 18585
